      2.10          N: GNSS NAV DATA                        RINEX VERSION / TYPE
fic2rin                                 03/29/2022 00:17:25 PGM / RUN BY / DATE
                                                            END OF HEADER
 6 22  3 28 16  0  0.0 2.468763850629e-04 1.318767317571e-11 0.000000000000e+00
    6.300000000000e+01 8.981250000000e+01 3.988023260033e-09-1.444694238114e+00
    4.675239324570e-06 2.671001828276e-03 5.647540092468e-06 5.153694541931e+03
    1.440000000000e+05-4.656612873077e-08-2.669929729039e+00 3.725290298462e-09
    9.867965753983e-01 2.864062500000e+02-8.995080454921e-01-8.053192590653e-09
    3.378712165495e-10 1.000000000000e+00 2.203000000000e+03 0.000000000000e+00
    2.400000000000e+00 0.000000000000e+00 3.725290298462e-09 6.300000000000e+01
    1.368000000000e+05 4.000000000000e+00
 4 22  3 28 16  0  0.0-1.803324557841e-04 2.842170943040e-12 0.000000000000e+00
    1.480000000000e+02-7.293750000000e+01 4.235176412097e-09 1.807650043309e-02
   -3.669410943985e-06 1.764970133081e-03 1.237355172634e-05 5.153642917633e+03
    1.440000000000e+05 2.048909664154e-08-5.452586114555e-01 4.097819328308e-08
    9.614923804398e-01 1.402812500000e+02-2.998810909860e+00-7.841040896541e-09
    2.210806374674e-10 1.000000000000e+00 2.203000000000e+03 0.000000000000e+00
    2.400000000000e+00 0.000000000000e+00-4.190951585770e-09 1.480000000000e+02
    1.368000000000e+05 4.000000000000e+00
15 22  3 28 16  0  0.0-7.329694926739e-05 2.955857780762e-12 0.000000000000e+00
    2.000000000000e+01-7.618750000000e+01 5.023780689202e-09-4.686457028261e-01
   -3.850087523460e-06 1.395728182979e-02 1.038424670696e-05 5.153767171860e+03
    1.440000000000e+05-4.284083843231e-08-7.056463723867e-01 1.899898052216e-07
    9.302677662550e-01 1.669062500000e+02 1.082236478990e+00-8.498568285196e-09
    6.214544575012e-11 1.000000000000e+00 2.203000000000e+03 0.000000000000e+00
    2.400000000000e+00 0.000000000000e+00-1.071020960808e-08 2.000000000000e+01
    1.368000000000e+05 4.000000000000e+00
18 22  3 28 16  0  0.0 2.092020586133e-04-9.094947017729e-12 0.000000000000e+00
    2.000000000000e+01 8.356250000000e+01 4.209461055235e-09-1.455467070297e+00
    4.326924681664e-06 2.160666044801e-03 5.114823579788e-06 5.153612688065e+03
    1.440000000000e+05-6.519258022308e-08-2.654461580820e+00-1.117587089539e-08
    9.712229975991e-01 2.876250000000e+02 3.070019709867e+00-8.078907947515e-09
    2.671539851787e-10 1.000000000000e+00 2.203000000000e+03 0.000000000000e+00
    2.400000000000e+00 0.000000000000e+00-8.381903171539e-09 2.000000000000e+01
    1.368000000000e+05 4.000000000000e+00
16 22  3 28 16  0  0.0-4.857331514359e-04-4.092726157978e-12 0.000000000000e+00
    6.900000000000e+01-1.343750000000e+01 4.802700051735e-09 1.403920268172e+00
   -5.234032869339e-07 1.280185231008e-02 6.971880793571e-06 5.153618017197e+03
    1.440000000000e+05-1.695007085800e-07 1.604638922121e+00 1.993030309677e-07
    9.694271486234e-01 2.552500000000e+02 7.203662233790e-01-8.237843139233e-09
   -5.632377468272e-10 1.000000000000e+00 2.203000000000e+03 0.000000000000e+00
    2.400000000000e+00 0.000000000000e+00-1.024454832077e-08 6.900000000000e+01
    1.368000000000e+05 4.000000000000e+00
12 22  3 28 16  0  0.0-1.917802728713e-04-5.798028723802e-12 0.000000000000e+00
    5.800000000000e+01-2.578125000000e+01 4.748054918403e-09-3.021885816622e+00
   -1.223757863045e-06 8.736133342609e-03 5.954876542091e-06 5.153572492599e+03
    1.440000000000e+05 1.769512891769e-07 1.586036900552e+00-1.378357410431e-07
    9.695049158855e-01 2.662500000000e+02 1.263604975065e+00-8.083193840326e-09
   -4.221604418198e-10 1.000000000000e+00 2.203000000000e+03 0.000000000000e+00
    2.400000000000e+00 0.000000000000e+00-1.257285475731e-08 5.800000000000e+01
    1.368000000000e+05 4.000000000000e+00
10 22  3 28 16  0  0.0-3.609703853726e-04-1.193711796077e-11 0.000000000000e+00
    9.400000000000e+01-8.071875000000e+01 4.354824253053e-09 2.522089981160e+00
   -4.174187779427e-06 7.566169835627e-03 3.820285201073e-06 5.153678886414e+03
    1.440000000000e+05-8.568167686462e-08-1.629686566598e+00-1.285225152969e-07
    9.725198627730e-01 3.117187500000e+02-2.496761627572e+00-8.134981711784e-09
   -1.217907873609e-10 1.000000000000e+00 2.203000000000e+03 0.000000000000e+00
    2.400000000000e+00 0.000000000000e+00 2.328306436539e-09 9.400000000000e+01
    1.368000000000e+05 4.000000000000e+00
 9 22  3 28 16  0  0.0-3.471923992038e-04 2.273736754432e-12 0.000000000000e+00
    5.400000000000e+01-8.390625000000e+01 4.342323732356e-09 9.255069612284e-01
   -4.252418875694e-06 2.136677620001e-03 1.157261431217e-05 5.153604207993e+03
    1.440000000000e+05-2.235174179077e-08-5.985372189291e-01-1.117587089539e-08
    9.544693262100e-01 1.502812500000e+02 1.883560939976e+00-7.947116743597e-09
    1.775073938955e-10 1.000000000000e+00 2.203000000000e+03 0.000000000000e+00
    2.400000000000e+00 0.000000000000e+00 1.396983861923e-09 5.400000000000e+01
    1.368000000000e+05 4.000000000000e+00
 7 22  3 28 16  0  0.0 3.181458450854e-04 1.591615728103e-12 0.000000000000e+00
    9.700000000000e+01 4.131250000000e+01 4.979135972428e-09-2.389297492654e+00
    1.827254891396e-06 1.576725125778e-02 7.815659046173e-06 5.153674974442e+03
    1.440000000000e+05 2.607703208923e-07 4.728579633122e-01-1.415610313416e-07
    9.512027954488e-01 2.210312500000e+02-2.282950361520e+00-8.012119451221e-09
    6.760995908332e-10 1.000000000000e+00 2.203000000000e+03 0.000000000000e+00
    2.400000000000e+00 0.000000000000e+00-1.117587089539e-08 9.700000000000e+01
    1.368000000000e+05 4.000000000000e+00
29 22  3 28 16  0  0.0-4.966654814780e-04-4.433786671143e-12 0.000000000000e+00
    5.700000000000e+01 3.471875000000e+01 3.718726328450e-09 6.367755700184e-01
    1.631677150726e-06 1.973380334675e-03 1.103058457375e-05 5.153739292145e+03
    1.440000000000e+05 3.725290298462e-09 2.637008349320e+00-2.421438694000e-08
    9.816098476245e-01 1.784687500000e+02 2.233391549494e+00-7.645675615936e-09
   -3.303709041314e-10 1.000000000000e+00 2.203000000000e+03 0.000000000000e+00
    2.400000000000e+00 0.000000000000e+00-1.024454832077e-08 5.700000000000e+01
    1.368000000000e+05 4.000000000000e+00
32 22  3 28 16  0  0.0-9.380094707012e-05-7.617018127348e-12 0.000000000000e+00
    4.100000000000e+01-6.250000000000e+01 4.351252675711e-09 1.131643184109e+00
   -3.347173333168e-06 5.824454012327e-03 1.163221895695e-05 5.153587934494e+03
    1.440000000000e+05-1.024454832077e-07-5.871572406330e-01 9.313225746155e-09
    9.583132970697e-01 1.516875000000e+02-2.312550324718e+00-7.952831267344e-09
    7.000291590243e-11 1.000000000000e+00 2.203000000000e+03 0.000000000000e+00
    2.400000000000e+00 0.000000000000e+00 4.656612873077e-10 4.100000000000e+01
    1.368000000000e+05 4.000000000000e+00
31 22  3 28 16  0  0.0-1.709470525384e-04-1.705302565824e-12 0.000000000000e+00
    9.700000000000e+01 4.828125000000e+01 4.968778398136e-09-2.846224008906e+00
    2.384185791016e-06 1.043242227752e-02 7.571652531624e-06 5.153705392838e+03
    1.440000000000e+05-1.471489667892e-07 4.911079131644e-01-1.601874828339e-07
    9.554042522849e-01 2.334687500000e+02 3.837566526164e-01-8.069979004161e-09
    4.882346226460e-10 1.000000000000e+00 2.203000000000e+03 0.000000000000e+00
    3.400000000000e+00 0.000000000000e+00-1.350417733192e-08 9.700000000000e+01
    1.368000000000e+05 4.000000000000e+00
30 22  3 28 16  0  0.0-5.210526287556e-04-1.932676241267e-12 0.000000000000e+00
    7.200000000000e+01 4.409375000000e+01 5.375581057385e-09-2.337654949855e+00
    2.048909664154e-06 5.620712996460e-03 8.041039109230e-06 5.153787561417e+03
    1.440000000000e+05 5.029141902924e-08 4.853602411565e-01-1.508742570877e-07
    9.363503016742e-01 2.143750000000e+02-2.733256041165e+00-8.353562245112e-09
    5.603804849537e-10 1.000000000000e+00 2.203000000000e+03 0.000000000000e+00
    2.400000000000e+00 0.000000000000e+00 3.725290298462e-09 7.200000000000e+01
    1.368000000000e+05 4.000000000000e+00
24 22  3 28 16  0  0.0 2.634390257299e-04-4.206412995700e-12 0.000000000000e+00
    1.100000000000e+02 4.887500000000e+01 5.330579182877e-09-1.421191721860e+00
    2.590939402580e-06 1.238609140273e-02 7.949769496918e-06 5.153691371918e+03
    1.440000000000e+05 2.514570951462e-07 3.894387829685e-01 1.862645149231e-08
    9.347374842310e-01 2.090625000000e+02 8.122877958243e-01-8.341061724415e-09
    5.846672108790e-10 1.000000000000e+00 2.203000000000e+03 0.000000000000e+00
    3.400000000000e+00 0.000000000000e+00 2.328306436539e-09 1.100000000000e+02
    1.368000000000e+05 4.000000000000e+00
21 22  3 28 16  0  0.0 1.598983071744e-04 4.547473508865e-13 0.000000000000e+00
    6.400000000000e+01 8.000000000000e+01 4.716982195528e-09 6.526858910786e-01
    3.656372427940e-06 2.451888541691e-02 5.565583705902e-06 5.153562355042e+03
    1.440000000000e+05 4.656612873077e-08-2.753643928757e+00-4.749745130539e-07
    9.599763730635e-01 2.754687500000e+02-9.774843849939e-01-8.693219250333e-09
    1.907222300607e-10 1.000000000000e+00 2.203000000000e+03 0.000000000000e+00
    2.400000000000e+00 0.000000000000e+00-1.024454832077e-08 6.400000000000e+01
    1.368000000000e+05 4.000000000000e+00
22 22  3 28 16  0  0.0 2.345400862396e-04 5.911715561524e-12 0.000000000000e+00
    4.300000000000e+01-4.900000000000e+01 4.326965949786e-09 3.342684512570e-01
   -2.697110176086e-06 1.315463951323e-02 1.204758882523e-05 5.153677484512e+03
    1.440000000000e+05-2.812594175339e-07-4.969312853312e-01 2.980232238770e-08
    9.616541060335e-01 1.504375000000e+02-1.864259051084e+00-8.037477650349e-09
    1.514348792991e-10 1.000000000000e+00 2.203000000000e+03 0.000000000000e+00
    2.400000000000e+00 0.000000000000e+00-9.778887033463e-09 4.300000000000e+01
    1.368000000000e+05 4.000000000000e+00
